NORAD_CAT_ID,OBJECT_NAME,OBJECT_TYPE,EPOCH,MEAN_MOTION,ECCENTRICITY,INCLINATION,RA_OF_ASC_NODE,ARG_OF_PERICENTER,MEAN_ANOMALY,BSTAR,MEAN_MOTION_DOT,MEAN_MOTION_DDOT,TLE_LINE0,TLE_LINE1,TLE_LINE2,SEMIMAJOR_AXIS,PERIOD,APOGEE,PERIGEE,DECAYED
52614.0,STARLINK-3982,PAYLOAD,2023-10-30 21:41:28,15.08839789,0.0001395,53.2155,173.3405,93.8849,266.2303,7.4853e-05,9.04e-06,0.0,0 STARLINK-3982,1 52614U 22052S   23303.90379822  .00000904  00000-0  74853-4 0  9994,2 52614  53.2155 173.3405 0001395  93.8849 266.2303 15.08839789 81046,6917.881,95.438,540.711,538.781,0.0
52614.0,STARLINK-3982,PAYLOAD,2023-10-31 08:49:10,15.08836619,0.0001448,53.2151,171.2572,97.8829,262.2328,5.5111e-05,5.89e-06,0.0,0 STARLINK-3982,1 52614U 22052S   23304.36747997  .00000589  00000-0  55111-4 0  9992,2 52614  53.2151 171.2572 0001448  97.8829 262.2328 15.08836619 81115,6917.891,95.438,540.757,538.754,0.0
52614.0,STARLINK-3982,PAYLOAD,2023-10-31 21:32:15,15.08842557,0.0001367,53.2153,168.8782,98.7846,261.3301,0.00026019,3.856e-05,0.0,0 STARLINK-3982,1 52614U 22052S   23304.89739964  .00003856  00000-0  26019-3 0  9999,2 52614  53.2153 168.8782 0001367  98.7846 261.3301 15.08842557 81569,6917.873,95.437,540.683,538.792,0.0
52614.0,STARLINK-3982,PAYLOAD,2023-11-01 08:39:57,15.08842148,0.0001483,53.2153,166.7958,101.2433,258.8726,0.0002848,4.248e-05,0.0,0 STARLINK-3982,1 52614U 22052S   23305.36108057  .00004248  00000-0  28480-3 0  9995,2 52614  53.2153 166.7958 0001483 101.2433 258.8726 15.08842148 81267,6917.874,95.437,540.765,538.713,0.0
52614.0,STARLINK-3982,PAYLOAD,2023-11-01 21:23:02,15.08846192,0.0001342,53.2155,164.4182,96.5065,263.608,0.000258,3.821e-05,0.0,0 STARLINK-3982,1 52614U 22052S   23305.89099815  .00003821  00000-0  25800-3 0  9993,2 52614  53.2155 164.4182 0001342  96.5065 263.6080 15.08846192 81343,6917.861,95.437,540.655,538.798,0.0
52614.0,STARLINK-3982,PAYLOAD,2023-11-02 19:38:26,15.0884202,0.0001415,53.2152,160.255,94.8734,265.242,-2.5369e-06,-3.28e-06,0.0,0 STARLINK-3982,1 52614U 22052S   23306.81835883 -.00000328  00000-0 -25369-5 0  9992,2 52614  53.2152 160.2550 0001415  94.8734 265.2420 15.08842020 81856,6917.874,95.437,540.718,538.76,0.0
52614.0,STARLINK-3982,PAYLOAD,2023-11-02 21:13:50,15.08822734,0.0001375,53.2155,159.9568,103.171,256.9435,0.0005493,8.461e-05,0.0,0 STARLINK-3982,1 52614U 22052S   23306.88460822  .00008461  00000-0  54930-3 0  9994,2 52614  53.2155 159.9568 0001375 103.1710 256.9435 15.08822734 81499,6917.933,95.439,540.749,538.847,0.0
52614.0,STARLINK-3982,PAYLOAD,2023-11-03 06:46:08,15.08831121,0.0001332,53.2151,158.174,95.495,264.6194,-0.00010619,-1.977e-05,0.0,0 STARLINK-3982,1 52614U 22052S   23307.28204418 -.00001977  00000-0 -10619-3 0  9999,2 52614  53.2151 158.1740 0001332  95.4950 264.6194 15.08831121 81926,6917.908,95.438,540.694,538.851,0.0
52614.0,STARLINK-3982,PAYLOAD,2023-11-03 14:43:04,15.08832518,0.0001247,53.2153,156.6871,90.1493,269.9641,-5.3578e-05,-1.14e-05,0.0,0 STARLINK-3982,1 52614U 22052S   23307.61324439 -.00001140  00000-0 -53578-4 0  9996,2 52614  53.2153 156.6871 0001247  90.1493 269.9641 15.08832518 81606,6917.903,95.438,540.631,538.906,0.0
52614.0,STARLINK-3982,PAYLOAD,2023-11-03 21:04:36,15.08840687,0.0001266,53.2154,155.4978,91.3137,268.8,5.4523e-05,5.8e-06,0.0,0 STARLINK-3982,1 52614U 22052S   23307.87820102  .00000580  00000-0  54523-4 0  9998,2 52614  53.2154 155.4978 0001266  91.3137 268.8000 15.08840687 82010,6917.878,95.438,540.619,538.867,0.0
52614.0,STARLINK-3982,PAYLOAD,2023-11-04 06:36:55,15.0884027,0.0001269,53.2154,153.7135,90.1483,269.9655,0.000106,1.4e-05,0.0,0 STARLINK-3982,1 52614U 22052S   23308.27564230  .00001400  00000-0  10600-3 0  9999,2 52614  53.2154 153.7135 0001269  90.1483 269.9655 15.08840270 81701,6917.88,95.438,540.622,538.867,0.0
52614.0,STARLINK-3982,PAYLOAD,2023-11-04 20:55:23,15.08840541,0.0001252,53.2155,151.0374,92.0792,268.0344,0.00013547,1.869e-05,0.0,0 STARLINK-3982,1 52614U 22052S   23308.87180352  .00001869  00000-0  13547-3 0  9996,2 52614  53.2155 151.0374 0001252  92.0792 268.0344 15.08840541 81799,6917.879,95.438,540.61,538.878,0.0
52614.0,STARLINK-3982,PAYLOAD,2023-11-05 00:06:09,15.0884529,0.0001264,53.2154,150.4425,91.6923,268.4214,0.00023606,3.472e-05,0.0,0 STARLINK-3982,1 52614U 22052S   23309.00428214  .00003472  00000-0  23606-3 0  9993,2 52614  53.2154 150.4425 0001264  91.6923 268.4214 15.08845290 82182,6917.864,95.437,540.604,538.855,0.0
52614.0,STARLINK-3982,PAYLOAD,2023-11-05 20:46:10,15.08863755,0.0001215,53.2153,146.5769,89.9131,270.2,0.00066198,0.0001027,0.0,0 STARLINK-3982,1 52614U 22052S   23309.86539637  .00010270  00000-0  66198-3 0  9996,2 52614  53.2153 146.5769 0001215  89.9131 270.2000 15.08863755 81948,6917.808,95.436,540.513,538.832,0.0
52614.0,STARLINK-3982,PAYLOAD,2023-11-06 19:01:33,15.08861755,0.0001315,53.2146,142.4131,90.2071,269.9071,0.00050393,7.746e-05,0.0,0 STARLINK-3982,1 52614U 22052S   23310.79275145  .00007746  00000-0  50393-3 0  9995,2 52614  53.2146 142.4131 0001315  90.2071 269.9071 15.08861755 82455,6917.814,95.436,540.589,538.769,0.0
52614.0,STARLINK-3982,PAYLOAD,2023-11-06 20:36:56,15.0885394,0.0001236,53.2152,142.1154,93.3721,266.7413,0.00024728,3.651e-05,0.0,0 STARLINK-3982,1 52614U 22052S   23310.85899169  .00003651  00000-0  24728-3 0  9994,2 52614  53.2152 142.1154 0001236  93.3721 266.7413 15.08853940 82094,6917.838,95.437,540.558,538.848,0.0
52614.0,STARLINK-3982,PAYLOAD,2023-11-07 06:09:16,15.08842587,0.0001503,53.2155,140.3311,83.5403,276.5761,-4.3202e-05,-9.76e-06,0.0,0 STARLINK-3982,1 52614U 22052S   23311.25643788 -.00000976  00000-0 -43202-4 0  9991,2 52614  53.2155 140.3311 0001503  83.5403 276.5761 15.08842587 82525,6917.872,95.437,540.777,538.698,0.0
52614.0,STARLINK-3982,PAYLOAD,2023-11-07 12:30:48,15.08833026,0.000179,53.2141,139.1501,65.9583,294.1597,-6.8824e-05,-1.383e-05,0.0,0 STARLINK-3982,1 52614U 22052S   23311.52140026 -.00001383  00000-0 -68824-4 0  9998,2 52614  53.2141 139.1501 0001790  65.9583 294.1597 15.08833026 82192,6917.902,95.438,541.005,538.528,0.0
52614.0,STARLINK-3982,PAYLOAD,2023-11-07 18:52:22,15.08822897,0.0001572,53.2152,137.9539,75.0487,285.0679,-0.00029977,-5.053e-05,0.0,0 STARLINK-3982,1 52614U 22052S   23311.78636621 -.00005053  00000-0 -29977-3 0  9990,2 52614  53.2152 137.9539 0001572  75.0487 285.0679 15.08822897 82604,6917.933,95.439,540.885,538.71,0.0
52614.0,STARLINK-3982,PAYLOAD,2023-11-08 06:00:04,15.0882343,0.0001387,53.216,135.8714,84.5383,275.5767,1.7414e-05,-1.1e-07,0.0,0 STARLINK-3982,1 52614U 22052S   23312.25005126 -.00000011  00000-0  17414-4 0  9995,2 52614  53.2160 135.8714 0001387  84.5383 275.5767 15.08823430 82302,6917.931,95.439,540.756,538.837,0.0
52614.0,STARLINK-3982,PAYLOAD,2023-11-08 18:43:09,15.0883187,0.0001018,53.2159,133.4956,71.5138,288.5965,0.00036609,5.542e-05,0.0,0 STARLINK-3982,1 52614U 22052S   23312.77997434  .00005542  00000-0  36609-3 0  9993,2 52614  53.2159 133.4956 0001018  71.5138 288.5965 15.08831870 82757,6917.905,95.438,540.474,539.066,0.0
52614.0,STARLINK-3982,PAYLOAD,2023-11-09 16:58:34,15.08827173,0.0001336,53.2157,129.3307,76.1411,283.973,0.00022464,3.288e-05,0.0,0 STARLINK-3982,1 52614U 22052S   23313.70734844  .00003288  00000-0  22464-3 0  9990,2 52614  53.2157 129.3307 0001336  76.1411 283.9730 15.08827173 82892,6917.92,95.438,540.709,538.86,0.0
52614.0,STARLINK-3982,PAYLOAD,2023-11-09 18:33:58,15.08823755,0.0001246,53.2147,129.0322,71.2854,288.8273,0.00013924,1.928e-05,0.0,0 STARLINK-3982,1 52614U 22052S   23313.77358985  .00001928  00000-0  13924-3 0  9995,2 52614  53.2147 129.0322 0001246  71.2854 288.8273 15.08823755 82531,6917.93,95.439,540.657,538.933,0.0
52614.0,STARLINK-3982,PAYLOAD,2023-11-10 12:03:12,15.0883466,0.0001325,53.2163,125.7628,73.497,286.6168,0.00020317,2.947e-05,0.0,0 STARLINK-3982,1 52614U 22052S   23314.50223039  .00002947  00000-0  20317-3 0  9994,2 52614  53.2163 125.7628 0001325  73.4970 286.6168 15.08834660 82640,6917.897,95.438,540.678,538.845,0.0
52614.0,STARLINK-3982,PAYLOAD,2023-11-10 18:24:44,15.08844719,0.0001415,53.2152,124.5709,86.5618,273.5536,0.00031116,4.668e-05,0.0,0 STARLINK-3982,1 52614U 22052S   23314.76718620  .00004668  00000-0  31116-3 0  9998,2 52614  53.2152 124.5709 0001415  86.5618 273.5536 15.08844719 83055,6917.866,95.437,540.71,538.752,0.0
52614.0,STARLINK-3982,PAYLOAD,2023-11-11 10:18:35,15.08854526,0.0001394,53.2151,121.5968,86.6677,273.4475,0.00047781,7.328e-05,0.0,0 STARLINK-3982,1 52614U 22052S   23315.42958174  .00007328  00000-0  47781-3 0  9993,2 52614  53.2151 121.5968 0001394  86.6677 273.4475 15.08854526 82787,6917.836,95.437,540.665,538.737,0.0
52614.0,STARLINK-3982,PAYLOAD,2023-11-11 18:15:30,15.0887077,0.0001415,53.215,120.11,85.3632,274.7522,0.00065795,0.00010208,0.0,0 STARLINK-3982,1 52614U 22052S   23315.76077448  .00010208  00000-0  65795-3 0  9992,2 52614  53.2150 120.1100 0001415  85.3632 274.7522 15.08870770 83204,6917.786,95.436,540.63,538.672,0.0
52614.0,STARLINK-3982,PAYLOAD,2023-11-12 03:47:49,15.08861754,0.0001399,53.2146,118.3267,87.6415,272.4738,0.00018126,2.6e-05,0.0,0 STARLINK-3982,1 52614U 22052S   23316.15821016  .00002600  00000-0  18126-3 0  9997,2 52614  53.2146 118.3267 0001399  87.6415 272.4738 15.08861754 83269,6917.814,95.436,540.647,538.711,0.0
52614.0,STARLINK-3982,PAYLOAD,2023-11-12 11:44:44,15.08855615,0.0001855,53.2149,116.839,88.4993,271.6211,1.7605e-05,-8e-08,0.0,0 STARLINK-3982,1 52614U 22052S   23316.48940963 -.00000008  00000-0  17605-4 0  9999,2 52614  53.2149 116.8390 0001855  88.4993 271.6211 15.08855615 82949,6917.833,95.437,540.981,538.414,0.0
52614.0,STARLINK-3982,PAYLOAD,2023-11-12 18:06:17,15.08849872,0.0001747,53.2164,115.6526,98.1106,262.0085,0.00013901,1.926e-05,0.0,0 STARLINK-3982,1 52614U 22052S   23316.75437134  .00001926  00000-0  13901-3 0  9993,2 52614  53.2164 115.6526 0001747  98.1106 262.0085 15.08849872 83355,6917.85,95.437,540.924,538.507,0.0
